From: horizons@ssd.jpl.nasa.gov (Horizons Ephemeris System)
Subject: [Horizons] SMALL BODY #C(500@399)_T(2P/Encke) (1/1)
Date: January 29, 2021 at 11:58:58 AM PST

Automated mail xmit by PORT_LOGIN, PID= 21169 Fri Jan 29 11:58:58 2021
++++++++++++++++++++++++++++++++ (part 1 of 1)  +++++++++++++++++++++++++++++++
*******************************************************************************
Ephemeris / PORT_LOGIN Fri Jan 29 11:58:44 2021 Pasadena, USA    / Horizons
*******************************************************************************
Target body name: 2P/Encke                        {source: JPL#K204/11}
Center body name: Earth (399)                     {source: DE431}
Center-site name: BODY CENTER
*******************************************************************************
Start time      : A.D. 2030-Jan-11 13:24:55.0000 TDB
Stop  time      : A.D. 2031-Jan-11 13:24:55.0000 TDB
Step-size       : 10080 minutes
*******************************************************************************
Center geodetic : 0.00000000,0.00000000,0.0000000 {E-lon(deg),Lat(deg),Alt(km)}
Center cylindric: 0.00000000,0.00000000,0.0000000 {E-lon(deg),Dxy(km),Dz(km)}
Center radii    : 6378.1 x 6378.1 x 6356.8 km     {Equator, meridian, pole}    
Small perturbers: Yes                             {source: SB431-N16}
Output units    : AU-D
Output type     : GEOMETRIC cartesian states
Output format   : 6 (LT, range, and range-rate)
EOP file        : eop.210128.p210421
EOP coverage    : DATA-BASED 1962-JAN-20 TO 2021-JAN-28. PREDICTS-> 2021-APR-20
Reference frame : Ecliptic of J2000.0
*******************************************************************************
Initial IAU76/J2000 heliocentric ecliptic osculating elements (au, days, deg.):
 EPOCH=  2457210.5 ! 2015-Jul-07.0000000 (TDB)    RMSW= n.a.                  
  EC= .8483347883978896   QR= .3359616424224114   TP= 2456618.3013887522      
  OM= 334.5679492534054   W= 186.5459103424292    IN= 11.78163028788679       
 Equivalent ICRF heliocentric equatorial cartesian coordinates (au, au/d):
  X= 3.858554658476230E+00  Y=-1.286982346450568E+00  Z=-4.613758964718424E-01
 VX= 1.207020316444721E-03 VY= 2.495042038873547E-03 VZ= 1.818017776073582E-03
Comet physical (GM= km^3/s^2; RAD= km):                                        
  GM= n.a.                RAD= 2.4                                            
  M1=  15.5     M2=  n.a.     k1=  4.5    k2= n.a.     PHCOF= n.a.            
*******************************************************************************
           JDTDB,            Calendar Date (TDB),                     LT,                     RG,                     RR,
**************************************************************************************************************************
$$SOE
2462513.058969907, A.D. 2030-Jan-11 13:24:55.0000,  1.482057791988832E-02,  2.566103519959020E+00,  3.677689376754769E-03,
2462520.058969907, A.D. 2030-Jan-18 13:24:55.0000,  1.494508672178091E-02,  2.587661550727423E+00,  2.467453205871822E-03,
2462527.058969907, A.D. 2030-Jan-25 13:24:55.0000,  1.501907873620462E-02,  2.600472870885643E+00,  1.181002630834934E-03,
2462534.058969907, A.D. 2030-Feb-01 13:24:55.0000,  1.503955176424622E-02,  2.604017665805635E+00, -1.812050311809534E-04,
2462541.058969907, A.D. 2030-Feb-08 13:24:55.0000,  1.500355055328073E-02,  2.597784249357187E+00, -1.607331145596256E-03,
2462548.058969907, A.D. 2030-Feb-15 13:24:55.0000,  1.490920600845101E-02,  2.581448997797827E+00, -3.062323610344746E-03,
2462555.058969907, A.D. 2030-Feb-22 13:24:55.0000,  1.475585734657295E-02,  2.554897500065865E+00, -4.524689588340278E-03,
2462562.058969907, A.D. 2030-Mar-01 13:24:55.0000,  1.454317487609272E-02,  2.518072671838314E+00, -5.999416291641409E-03,
2462569.058969907, A.D. 2030-Mar-08 13:24:55.0000,  1.427068290545934E-02,  2.470892149676319E+00, -7.479061325233067E-03,
2462576.058969907, A.D. 2030-Mar-15 13:24:55.0000,  1.393876699698377E-02,  2.413422691624579E+00, -8.934802645767626E-03,
2462583.058969907, A.D. 2030-Mar-22 13:24:55.0000,  1.354882002742904E-02,  2.345905466818592E+00, -1.034871233209409E-02,
2462590.058969907, A.D. 2030-Mar-29 13:24:55.0000,  1.310242046778828E-02,  2.268613779038651E+00, -1.173050506595293E-02,
2462597.058969907, A.D. 2030-Apr-05 13:24:55.0000,  1.260074156694921E-02,  2.181750770032453E+00, -1.308074714624412E-02,
2462604.058969907, A.D. 2030-Apr-12 13:24:55.0000,  1.204538689494027E-02,  2.085594089343541E+00, -1.438417009083675E-02,
2462611.058969907, A.D. 2030-Apr-19 13:24:55.0000,  1.143829680449396E-02,  1.980479698633044E+00, -1.564338917920639E-02,
2462618.058969907, A.D. 2030-Apr-26 13:24:55.0000,  1.078039869932964E-02,  1.866568172877289E+00, -1.691174048075714E-02,
2462625.058969907, A.D. 2030-May-03 13:24:55.0000,  1.006936057200221E-02,  1.743455737503801E+00, -1.829505688803925E-02,
2462632.058969907, A.D. 2030-May-10 13:24:55.0000,  9.296647395281812E-03,  1.609664598358003E+00, -2.001989550228921E-02,
2462639.058969907, A.D. 2030-May-17 13:24:55.0000,  8.438895730576511E-03,  1.461149501446885E+00, -2.263238962568537E-02,
2462646.058969907, A.D. 2030-May-24 13:24:55.0000,  7.441872567318127E-03,  1.288520292076803E+00, -2.704275674289386E-02,
2462653.058969907, A.D. 2030-May-31 13:24:55.0000,  6.243114566588089E-03,  1.080961778375094E+00, -3.178841354950573E-02,
2462660.058969907, A.D. 2030-Jun-07 13:24:55.0000,  4.962792549129165E-03,  8.592808929574264E-01, -3.032240958197998E-02,
2462667.058969907, A.D. 2030-Jun-14 13:24:55.0000,  3.842442589156386E-03,  6.652983106713395E-01, -2.500159355962252E-02,
2462674.058969907, A.D. 2030-Jun-21 13:24:55.0000,  2.933926325028750E-03,  5.079935958403869E-01, -2.006020647923482E-02,
2462681.058969907, A.D. 2030-Jun-28 13:24:55.0000,  2.219035171300460E-03,  3.842140296260382E-01, -1.517437098890602E-02,
2462688.058969907, A.D. 2030-Jul-05 13:24:55.0000,  1.733427316185975E-03,  3.001336359285149E-01, -8.329384501139502E-03,
2462695.058969907, A.D. 2030-Jul-12 13:24:55.0000,  1.588727613191384E-03,  2.750796590054448E-01,  1.463973545185583E-03,
2462702.058969907, A.D. 2030-Jul-19 13:24:55.0000,  1.834457103512375E-03,  3.176264013443011E-01,  1.007532946048121E-02,
2462709.058969907, A.D. 2030-Jul-26 13:24:55.0000,  2.350421300464671E-03,  4.069628326986659E-01,  1.491240894117656E-02,
2462716.058969907, A.D. 2030-Aug-02 13:24:55.0000,  3.009805122327960E-03,  5.211316023265217E-01,  1.746092841746503E-02,
2462723.058969907, A.D. 2030-Aug-09 13:24:55.0000,  3.748863297726851E-03,  6.490955586308569E-01,  1.899120509194674E-02,
2462730.058969907, A.D. 2030-Aug-16 13:24:55.0000,  4.539315775926189E-03,  7.859581626151244E-01,  2.006116631885133E-02,
2462737.058969907, A.D. 2030-Aug-23 13:24:55.0000,  5.367809790041804E-03,  9.294074543619792E-01,  2.089318796374024E-02,
2462744.058969907, A.D. 2030-Aug-30 13:24:55.0000,  6.226472496921214E-03,  1.078080293335684E+00,  2.155956049354954E-02,
2462751.058969907, A.D. 2030-Sep-06 13:24:55.0000,  7.109117870808874E-03,  1.230905602379080E+00,  2.208291954466578E-02,
2462758.058969907, A.D. 2030-Sep-13 13:24:55.0000,  8.010522277521167E-03,  1.386978937270221E+00,  2.249323153939055E-02,
2462765.058969907, A.D. 2030-Sep-20 13:24:55.0000,  8.926561843224608E-03,  1.545586271389015E+00,  2.280625691390914E-02,
2462772.058969907, A.D. 2030-Sep-27 13:24:55.0000,  9.853098063355702E-03,  1.706011044882992E+00,  2.300947523424959E-02,
2462779.058969907, A.D. 2030-Oct-04 13:24:55.0000,  1.078533976761566E-02,  1.867423692330690E+00,  2.308794105522748E-02,
2462786.058969907, A.D. 2030-Oct-11 13:24:55.0000,  1.171846100633645E-02,  2.028988626449533E+00,  2.305709844084764E-02,
2462793.058969907, A.D. 2030-Oct-18 13:24:55.0000,  1.264834221227383E-02,  2.189992566282240E+00,  2.292662354761817E-02,
2462800.058969907, A.D. 2030-Oct-25 13:24:55.0000,  1.357072481349699E-02,  2.349698162956135E+00,  2.268306925951945E-02,
2462807.058969907, A.D. 2030-Nov-01 13:24:55.0000,  1.448067580675857E-02,  2.507251293435971E+00,  2.231110484470337E-02,
2462814.058969907, A.D. 2030-Nov-08 13:24:55.0000,  1.537325943804041E-02,  2.661797358405305E+00,  2.182845144307732E-02,
2462821.058969907, A.D. 2030-Nov-15 13:24:55.0000,  1.624434287359654E-02,  2.812620779883286E+00,  2.124700682034223E-02,
2462828.058969907, A.D. 2030-Nov-22 13:24:55.0000,  1.708977356128544E-02,  2.959002565754713E+00,  2.055690289980270E-02,
2462835.058969907, A.D. 2030-Nov-29 13:24:55.0000,  1.790485654988730E-02,  3.100129810415204E+00,  1.974550916437513E-02,
2462842.058969907, A.D. 2030-Dec-06 13:24:55.0000,  1.868500533947073E-02,  3.235208386018880E+00,  1.883396893066336E-02,
2462849.058969907, A.D. 2030-Dec-13 13:24:55.0000,  1.942658503486634E-02,  3.363608929976827E+00,  1.783762848073913E-02,
2462856.058969907, A.D. 2030-Dec-20 13:24:55.0000,  2.012608712842591E-02,  3.484723963021060E+00,  1.675048656319198E-02,
2462863.058969907, A.D. 2030-Dec-27 13:24:55.0000,  2.077961128474691E-02,  3.597878163011004E+00,  1.556334082392405E-02,
2462870.058969907, A.D. 2031-Jan-03 13:24:55.0000,  2.138348764077256E-02,  3.702436112855723E+00,  1.430035211507983E-02,
2462877.058969907, A.D. 2031-Jan-10 13:24:55.0000,  2.193513789806015E-02,  3.797951394018434E+00,  1.298037554275955E-02,
$$EOE
**************************************************************************************************************************
Coordinate system description:

 Ecliptic at the standard reference epoch

   Reference epoch: J2000.0
   X-Y plane: adopted Earth orbital plane at the reference epoch
              Note: obliquity of 84381.448 arcseconds (IAU76) wrt ICRF equator
   X-axis   : ICRF
   Z-axis   : perpendicular to the X-Y plane in the directional (+ or -) sense
              of Earth's north pole at the reference epoch.

 Symbol meaning [1 au= 149597870.700 km, 1 day= 86400.0 s]:

   JDTDB    Julian Day Number, Barycentric Dynamical Time
     LT     One-way down-leg Newtonian light-time (day)
     RG     Range; distance from coordinate center (au)
     RR     Range-rate; radial velocity wrt coord. center (au/day)

Geometric states/elements have no aberrations applied.


Computations by ...
    Solar System Dynamics Group, Horizons On-Line Ephemeris System
    4800 Oak Grove Drive, Jet Propulsion Laboratory
    Pasadena, CA  91109   USA
    Information  : https://ssd.jpl.nasa.gov/
    Documentation: https://ssd.jpl.nasa.gov/?horizons_doc
    Connect      : https://ssd.jpl.nasa.gov/?horizons (browser)
                   telnet ssd.jpl.nasa.gov 6775       (command-line)
                   e-mail command interface available
                   Script and CGI interfaces available
    Author       : Jon.D.Giorgini@jpl.nasa.gov
*******************************************************************************
